[
    {
        "Altitude(m)": 704900.5707290283,
        "Argument of Periapsis(deg)": 0.004556048474650827,
        "Eccentricity": 0.0,
        "Inclination(deg)": 45.0,
        "Latitude(deg)": -8.382775361697396,
        "Longitude(deg)": -153.7191896484849,
        "Mean Anomaly(deg)": -11.750313341007697,
        "RAAN(deg)": 314.99569922341675,
        "Satellite Name": "Constellation 1 1407",
        "Satellite Number": 1407,
        "Semi-Major Axis(m)": 7083131.272910544,
        "Time(s)": 76
    },
    {
        "Altitude(m)": 704891.1864197747,
        "Argument of Periapsis(deg)": 0.004615996480896233,
        "Eccentricity": 0.0,
        "Inclination(deg)": 45.0,
        "Latitude(deg)": -8.34004830808355,
        "Longitude(deg)": -153.67953705647125,
        "Mean Anomaly(deg)": -11.68961220075776,
        "RAAN(deg)": 314.99564263425117,
        "Satellite Name": "Constellation 1 1407",
        "Satellite Number": 1407,
        "Semi-Major Axis(m)": 7083131.272910544,
        "Time(s)": 77
    },
    {
        "Altitude(m)": 704881.8198045888,
        "Argument of Periapsis(deg)": 0.004675944487141638,
        "Eccentricity": 0.0,
        "Inclination(deg)": 45.0,
        "Latitude(deg)": -8.297316250172152,
        "Longitude(deg)": -153.6398938746537,
        "Mean Anomaly(deg)": -11.628911060507924,
        "RAAN(deg)": 314.99558604508553,
        "Satellite Name": "Constellation 1 1407",
        "Satellite Number": 1407,
        "Semi-Major Axis(m)": 7083131.272910544,
        "Time(s)": 78
    },
    {
        "Altitude(m)": 704872.4709072913,
        "Argument of Periapsis(deg)": 0.004735892493387044,
        "Eccentricity": 0.0,
        "Inclination(deg)": 45.0,
        "Latitude(deg)": -8.254579214552395,
        "Longitude(deg)": -153.60026005283945,
        "Mean Anomaly(deg)": -11.568209920257987,
        "RAAN(deg)": 314.99552945592,
        "Satellite Name": "Constellation 1 1407",
        "Satellite Number": 1407,
        "Semi-Major Axis(m)": 7083131.272910544,
        "Time(s)": 79
    },
    {
        "Altitude(m)": 704863.1397516202,
        "Argument of Periapsis(deg)": 0.004795840499632449,
        "Eccentricity": 0.0,
        "Inclination(deg)": 45.0,
        "Latitude(deg)": -8.211837227796186,
        "Longitude(deg)": -153.56063554085574,
        "Mean Anomaly(deg)": -11.507508780008049,
        "RAAN(deg)": 314.9954728667544,
        "Satellite Name": "Constellation 1 1407",
        "Satellite Number": 1407,
        "Semi-Major Axis(m)": 7083131.272910544,
        "Time(s)": 80
    },
    {
        "Altitude(m)": 704853.8263612227,
        "Argument of Periapsis(deg)": 0.004855788505877855,
        "Eccentricity": 0.0,
        "Inclination(deg)": 45.0,
        "Latitude(deg)": -8.169090316457917,
        "Longitude(deg)": -153.5210202885488,
        "Mean Anomaly(deg)": -11.446807639758214,
        "RAAN(deg)": 314.9954162775889,
        "Satellite Name": "Constellation 1 1407",
        "Satellite Number": 1407,
        "Semi-Major Axis(m)": 7083131.272910544,
        "Time(s)": 81
    },
    {
        "Altitude(m)": 704844.5307596652,
        "Argument of Periapsis(deg)": 0.00491573651212326,
        "Eccentricity": 0.0,
        "Inclination(deg)": 45.0,
        "Latitude(deg)": -8.126338507074122,
        "Longitude(deg)": -153.48141441388094,
        "Mean Anomaly(deg)": -11.386106499508326,
        "RAAN(deg)": 314.9953596884233,
        "Satellite Name": "Constellation 1 1407",
        "Satellite Number": 1407,
        "Semi-Major Axis(m)": 7083131.272910544,
        "Time(s)": 82
    },
    {
        "Altitude(m)": 704835.252970424,
        "Argument of Periapsis(deg)": 0.004975684518368666,
        "Eccentricity": 0.0,
        "Inclination(deg)": 45.0,
        "Latitude(deg)": -8.083581826164897,
        "Longitude(deg)": -153.44181753054255,
        "Mean Anomaly(deg)": -11.325405359258339,
        "RAAN(deg)": 314.9953030992577,
        "Satellite Name": "Constellation 1 1407",
        "Satellite Number": 1407,
        "Semi-Major Axis(m)": 7083131.272910544,
        "Time(s)": 83
    },
    {
        "Altitude(m)": 704825.9930169025,
        "Argument of Periapsis(deg)": 0.005035632524614072,
        "Eccentricity": 0.0,
        "Inclination(deg)": 45.0,
        "Latitude(deg)": -8.040820300232548,
        "Longitude(deg)": -153.40222975653427,
        "Mean Anomaly(deg)": -11.264704219008504,
        "RAAN(deg)": 314.99524651009216,
        "Satellite Name": "Constellation 1 1407",
        "Satellite Number": 1407,
        "Semi-Major Axis(m)": 7083131.272910544,
        "Time(s)": 84
    },
    {
        "Altitude(m)": 704816.7509224095,
        "Argument of Periapsis(deg)": 0.0050955805308594785,
        "Eccentricity": 0.0,
        "Inclination(deg)": 45.0,
        "Latitude(deg)": -7.998053955762268,
        "Longitude(deg)": -153.36265104177846,
        "Mean Anomaly(deg)": -11.204003078758616,
        "RAAN(deg)": 314.9951899209266,
        "Satellite Name": "Constellation 1 1407",
        "Satellite Number": 1407,
        "Semi-Major Axis(m)": 7083131.272910544,
        "Time(s)": 85
    },
    {
        "Altitude(m)": 704807.5267101753,
        "Argument of Periapsis(deg)": 0.005155528537104883,
        "Eccentricity": 0.0,
        "Inclination(deg)": 45.0,
        "Latitude(deg)": -7.955282819222265,
        "Longitude(deg)": -153.32308133621618,
        "Mean Anomaly(deg)": -11.14330193850868,
        "RAAN(deg)": 314.99513333176105,
        "Satellite Name": "Constellation 1 1407",
        "Satellite Number": 1407,
        "Semi-Major Axis(m)": 7083131.272910544,
        "Time(s)": 86
    },
    {
        "Altitude(m)": 704798.320403335,
        "Argument of Periapsis(deg)": 0.0052154765433502885,
        "Eccentricity": 0.0,
        "Inclination(deg)": 45.0,
        "Latitude(deg)": -7.91250691706397,
        "Longitude(deg)": -153.28352058980758,
        "Mean Anomaly(deg)": -11.082600798258742,
        "RAAN(deg)": 314.9950767425955,
        "Satellite Name": "Constellation 1 1407",
        "Satellite Number": 1407,
        "Semi-Major Axis(m)": 7083131.272910544,
        "Time(s)": 87
    },
    {
        "Altitude(m)": 704789.1320249556,
        "Argument of Periapsis(deg)": 0.005275424549595694,
        "Eccentricity": 0.0,
        "Inclination(deg)": 45.0,
        "Latitude(deg)": -7.869726275722048,
        "Longitude(deg)": -153.2439687525313,
        "Mean Anomaly(deg)": -11.021899658008957,
        "RAAN(deg)": 314.99502015342983,
        "Satellite Name": "Constellation 1 1407",
        "Satellite Number": 1407,
        "Semi-Major Axis(m)": 7083131.272910544,
        "Time(s)": 88
    },
    {
        "Altitude(m)": 704779.9615980072,
        "Argument of Periapsis(deg)": 0.0053353725558411,
        "Eccentricity": 0.0,
        "Inclination(deg)": 45.0,
        "Latitude(deg)": -7.826940921613794,
        "Longitude(deg)": -153.2044259424813,
        "Mean Anomaly(deg)": -10.96119851775897,
        "RAAN(deg)": 314.9949635642643,
        "Satellite Name": "Constellation 1 1407",
        "Satellite Number": 1407,
        "Semi-Major Axis(m)": 7083131.272910544,
        "Time(s)": 89
    },
    {
        "Altitude(m)": 704770.8091453793,
        "Argument of Periapsis(deg)": 0.005395320562086505,
        "Eccentricity": 0.0,
        "Inclination(deg)": 45.0,
        "Latitude(deg)": -7.784150881141183,
        "Longitude(deg)": -153.16489177347935,
        "Mean Anomaly(deg)": -10.900497377509135,
        "RAAN(deg)": 314.99490697509873,
        "Satellite Name": "Constellation 1 1407",
        "Satellite Number": 1407,
        "Semi-Major Axis(m)": 7083131.272910544,
        "Time(s)": 90
    },
    {
        "Altitude(m)": 704761.6746898758,
        "Argument of Periapsis(deg)": 0.00545526856833191,
        "Eccentricity": 0.0,
        "Inclination(deg)": 45.0,
        "Latitude(deg)": -7.741356180688445,
        "Longitude(deg)": -153.1253663636561,
        "Mean Anomaly(deg)": -10.839796237259197,
        "RAAN(deg)": 314.9948503859332,
        "Satellite Name": "Constellation 1 1407",
        "Satellite Number": 1407,
        "Semi-Major Axis(m)": 7083131.272910544,
        "Time(s)": 91
    },
    {
        "Altitude(m)": 704752.5582542113,
        "Argument of Periapsis(deg)": 0.005515216574577317,
        "Eccentricity": 0.0,
        "Inclination(deg)": 45.0,
        "Latitude(deg)": -7.6985568466239735,
        "Longitude(deg)": -153.0858496630641,
        "Mean Anomaly(deg)": -10.77909509700931,
        "RAAN(deg)": 314.9947937967676,
        "Satellite Name": "Constellation 1 1407",
        "Satellite Number": 1407,
        "Semi-Major Axis(m)": 7083131.272910544,
        "Time(s)": 92
    },
    {
        "Altitude(m)": 704743.4598610201,
        "Argument of Periapsis(deg)": 0.005575164580822722,
        "Eccentricity": 0.0,
        "Inclination(deg)": 45.0,
        "Latitude(deg)": -7.65575290529953,
        "Longitude(deg)": -153.04634162177356,
        "Mean Anomaly(deg)": -10.718393956759373,
        "RAAN(deg)": 314.99473720760204,
        "Satellite Name": "Constellation 1 1407",
        "Satellite Number": 1407,
        "Semi-Major Axis(m)": 7083131.272910544,
        "Time(s)": 93
    },
    {
        "Altitude(m)": 704734.3795328538,
        "Argument of Periapsis(deg)": 0.005635112587068129,
        "Eccentricity": 0.0,
        "Inclination(deg)": 45.0,
        "Latitude(deg)": -7.612944383050945,
        "Longitude(deg)": -153.00684218987323,
        "Mean Anomaly(deg)": -10.657692816509588,
        "RAAN(deg)": 314.99468061843646,
        "Satellite Name": "Constellation 1 1407",
        "Satellite Number": 1407,
        "Semi-Major Axis(m)": 7083131.272910544,
        "Time(s)": 94
    }
]